{"type": "FeatureCollection", "features": [ {"type": "Feature", "properties": {"norad_id": 31715, "name": "FENGYUN 1C DEB", "group": "fengyun-1c-debris", "lat": -20.183651986889352, "lon": -8.444659028202159, "alt_km": 696.9717280014484, "timestamp": "2025-12-12T05:47:29.054910+00:00", "meta": {"OBJECT_NAME": "FENGYUN 1C DEB", "OBJECT_ID": "1999-025CDN", "EPOCH": "2025-12-10T06:35:10.683744", "MEAN_MOTION": 14.52125972, "ECCENTRICITY": 0.0187101, "INCLINATION": 99.2936, "RA_OF_ASC_NODE": 172.8301, "ARG_OF_PERICENTER": 126.8068, "MEAN_ANOMALY": 235.0454, "EPHEMERIS_TYPE": 0, "CLASSIFICATION_TYPE": "U", "NORAD_CAT_ID": 31715, "ELEMENT_SET_NO": 999, "REV_AT_EPOCH": 61681, "BSTAR": 0.0013897, "MEAN_MOTION_DOT": 7.024e-05, "MEAN_MOTION_DDOT": 0}, "tle": {"line1": "1 31715U 99025CDN 25344.27442921  .00007024  00000+0  13897-2 0  9993", "line2": "2 31715  99.2936 172.8301 0187101 126.8068 235.0454 14.52125972616811"}}, "geometry": {"type": "Point", "coordinates": [-8.444659028202159, -20.183651986889352]}}, {"type": "Feature", "properties": {"norad_id": 31716, "name": "FENGYUN 1C DEB", "group": "fengyun-1c-debris", "lat": -48.58376839098502, "lon": 55.42377943532891, "alt_km": 958.3353908685967, "timestamp": "2025-12-12T05:47:29.054920+00:00", "meta": {"OBJECT_NAME": "FENGYUN 1C DEB", "OBJECT_ID": "1999-025CDP", "EPOCH": "2025-12-08T05:37:21.600192", "MEAN_MOTION": 14.03577744, "ECCENTRICITY": 0.01316478, "INCLINATION": 98.5559, "RA_OF_ASC_NODE": 241.4783, "ARG_OF_PERICENTER": 102.7511, "MEAN_ANOMALY": 49.5156, "EPHEMERIS_TYPE": 0, "CLASSIFICATION_TYPE": "U", "NORAD_CAT_ID": 31716, "ELEMENT_SET_NO": 999, "REV_AT_EPOCH": 94056, "BSTAR": 0.0019814323, "MEAN_MOTION_DOT": 3.318e-05, "MEAN_MOTION_DDOT": 0}, "tle": {"line1": "1 31716U 99025CDP 25342.23427778  .00003318  00000+0  19814-2 0  9998", "line2": "2 31716  98.5559 241.4783 0131647 102.7511  49.5156 14.03577744940565"}}, "geometry": {"type": "Point", "coordinates": [55.42377943532891, -48.58376839098502]}}, {"type": "Feature", "properties": {"norad_id": 31720, "name": "FENGYUN 1C DEB", "group": "fengyun-1c-debris", "lat": -73.48158369306576, "lon": 45.61152257503814, "alt_km": 708.2860283511081, "timestamp": "2025-12-12T05:47:29.054932+00:00", "meta": {"OBJECT_NAME": "FENGYUN 1C DEB", "OBJECT_ID": "1999-025CDT", "EPOCH": "2025-12-11T17:13:05.422368", "MEAN_MOTION": 14.71801558, "ECCENTRICITY": 0.01000146, "INCLINATION": 99.0463, "RA_OF_ASC_NODE": 257.524, "ARG_OF_PERICENTER": 126.7543, "MEAN_ANOMALY": 234.2895, "EPHEMERIS_TYPE": 0, "CLASSIFICATION_TYPE": "U", "NORAD_CAT_ID": 31720, "ELEMENT_SET_NO": 999, "REV_AT_EPOCH": 98221, "BSTAR": 0.0012866979, "MEAN_MOTION_DOT": 8.641e-05, "MEAN_MOTION_DDOT": 0}, "tle": {"line1": "1 31720U 99025CDT 25345.71742387  .00008641  00000+0  12867-2 0  9990", "line2": "2 31720  99.0463 257.5240 0100014 126.7543 234.2895 14.71801558982210"}}, "geometry": {"type": "Point", "coordinates": [45.61152257503814, -73.48158369306576]}}, {"type": "Feature", "properties": {"norad_id": 31721, "name": "FENGYUN 1C DEB", "group": "fengyun-1c-debris", "lat": 26.94312318539145, "lon": 150.8820356480987, "alt_km": 785.1501356996132, "timestamp": "2025-12-12T05:47:29.054943+00:00", "meta": {"OBJECT_NAME": "FENGYUN 1C DEB", "OBJECT_ID": "1999-025CDU", "EPOCH": "2025-12-11T10:33:23.713056", "MEAN_MOTION": 13.73776186, "ECCENTRICITY": 0.03173694, "INCLINATION": 99.7811, "RA_OF_ASC_NODE": 325.0314, "ARG_OF_PERICENTER": 186.8681, "MEAN_ANOMALY": 325.9802, "EPHEMERIS_TYPE": 0, "CLASSIFICATION_TYPE": "U", "NORAD_CAT_ID": 31721, "ELEMENT_SET_NO": 999, "REV_AT_EPOCH": 67368, "BSTAR": 0.0005325151, "MEAN_MOTION_DOT": 6.7e-06, "MEAN_MOTION_DDOT": 0}, "tle": {"line1": "1 31721U 99025CDU 25345.43985779  .00000670  00000+0  53252-3 0  9992", "line2": "2 31721  99.7811 325.0314 0317369 186.8681 325.9802 13.73776186673684"}}, "geometry": {"type": "Point", "coordinates": [150.8820356480987, 26.94312318539145]}}, {"type": "Feature", "properties": {"norad_id": 31724, "name": "FENGYUN 1C DEB", "group": "fengyun-1c-debris", "lat": -17.638990387198294, "lon": 169.73903207039257, "alt_km": 657.6756267255614, "timestamp": "2025-12-12T05:47:29.054953+00:00", "meta": {"OBJECT_NAME": "FENGYUN 1C DEB", "OBJECT_ID": "1999-025CDX", "EPOCH": "2025-12-04T06:16:47.265024", "MEAN_MOTION": 14.48822962, "ECCENTRICITY": 0.0152327, "INCLINATION": 97.8549, "RA_OF_ASC_NODE": 344.8228, "ARG_OF_PERICENTER": 268.5146, "MEAN_ANOMALY": 89.8595, "EPHEMERIS_TYPE": 0, "CLASSIFICATION_TYPE": "U", "NORAD_CAT_ID": 31724, "ELEMENT_SET_NO": 999, "REV_AT_EPOCH": 64369, "BSTAR": 0.0052478, "MEAN_MOTION_DOT": 0.00022998, "MEAN_MOTION_DDOT": 0}, "tle": {"line1": "1 31724U 99025CDX 25338.26165816  .00022998  00000+0  52478-2 0  9995", "line2": "2 31724  97.8549 344.8228 0152327 268.5146  89.8595 14.48822962643692"}}, "geometry": {"type": "Point", "coordinates": [169.73903207039257, -17.638990387198294]}}, {"type": "Feature", "properties": {"norad_id": 31725, "name": "FENGYUN 1C DEB", "group": "fengyun-1c-debris", "lat": -33.52538958598227, "lon": -150.58562459202952, "alt_km": 821.304753619127, "timestamp": "2025-12-12T05:47:29.054963+00:00", "meta": {"OBJECT_NAME": "FENGYUN 1C DEB", "OBJECT_ID": "1999-025CDY", "EPOCH": "2025-12-09T19:45:31.507776", "MEAN_MOTION": 12.79173156, "ECCENTRICITY": 0.06944368, "INCLINATION": 99.1805, "RA_OF_ASC_NODE": 201.28, "ARG_OF_PERICENTER": 341.3906, "MEAN_ANOMALY": 16.2905, "EPHEMERIS_TYPE": 0, "CLASSIFICATION_TYPE": "U", "NORAD_CAT_ID": 31725, "ELEMENT_SET_NO": 999, "REV_AT_EPOCH": 86444, "BSTAR": 0.004491389, "MEAN_MOTION_DOT": 2.769e-05, "MEAN_MOTION_DDOT": 0}, "tle": {"line1": "1 31725U 99025CDY 25343.82328134  .00002769  00000+0  44914-2 0  9998", "line2": "2 31725  99.1805 201.2800 0694436 341.3906  16.2905 12.79173156864444"}}, "geometry": {"type": "Point", "coordinates": [-150.58562459202952, -33.52538958598227]}}, {"type": "Feature", "properties": {"norad_id": 31727, "name": "FENGYUN 1C DEB", "group": "fengyun-1c-debris", "lat": -46.78978130812754, "lon": -91.29069229564696, "alt_km": 784.6221648183136, "timestamp": "2025-12-12T05:47:29.054973+00:00", "meta": {"OBJECT_NAME": "FENGYUN 1C DEB", "OBJECT_ID": "1999-025CEA", "EPOCH": "2025-12-10T18:23:22.228800", "MEAN_MOTION": 14.36981321, "ECCENTRICITY": 0.00320345, "INCLINATION": 98.8642, "RA_OF_ASC_NODE": 96.7532, "ARG_OF_PERICENTER": 346.3901, "MEAN_ANOMALY": 174.8893, "EPHEMERIS_TYPE": 0, "CLASSIFICATION_TYPE": "U", "NORAD_CAT_ID": 31727, "ELEMENT_SET_NO": 999, "REV_AT_EPOCH": 71640, "BSTAR": 0.0030305659, "MEAN_MOTION_DOT": 8.997e-05, "MEAN_MOTION_DDOT": 0}, "tle": {"line1": "1 31727U 99025CEA 25344.76622950  .00008997  00000+0  30306-2 0  9996", "line2": "2 31727  98.8642  96.7532 0032034 346.3901 174.8893 14.36981321716405"}}, "geometry": {"type": "Point", "coordinates": [-91.29069229564696, -46.78978130812754]}}, {"type": "Feature", "properties": {"norad_id": 31731, "name": "FENGYUN 1C DEB", "group": "fengyun-1c-debris", "lat": 36.74995894226203, "lon": 27.370863084706873, "alt_km": 751.3040050623276, "timestamp": "2025-12-12T05:47:29.054985+00:00", "meta": {"OBJECT_NAME": "FENGYUN 1C DEB", "OBJECT_ID": "1999-025CEE", "EPOCH": "2025-11-27T02:07:07.827456", "MEAN_MOTION": 14.40063792, "ECCENTRICITY": 0.00116613, "INCLINATION": 99.3084, "RA_OF_ASC_NODE": 17.9462, "ARG_OF_PERICENTER": 144.9647, "MEAN_ANOMALY": 215.2308, "EPHEMERIS_TYPE": 0, "CLASSIFICATION_TYPE": "U", "NORAD_CAT_ID": 31731, "ELEMENT_SET_NO": 999, "REV_AT_EPOCH": 95605, "BSTAR": 0.0018623031, "MEAN_MOTION_DOT": 5.831e-05, "MEAN_MOTION_DDOT": 0}, "tle": {"line1": "1 31731U 99025CEE 25331.08828504  .00005831  00000+0  18623-2 0  9997", "line2": "2 31731  99.3084  17.9462 0011661 144.9647 215.2308 14.40063792956051"}}, "geometry": {"type": "Point", "coordinates": [27.370863084706873, 36.74995894226203]}}, {"type": "Feature", "properties": {"norad_id": 31732, "name": "FENGYUN 1C DEB", "group": "fengyun-1c-debris", "lat": 10.907907590026545, "lon": 19.34757888450466, "alt_km": 869.0837339826166, "timestamp": "2025-12-12T05:47:29.054995+00:00", "meta": {"OBJECT_NAME": "FENGYUN 1C DEB", "OBJECT_ID": "1999-025CEF", "EPOCH": "2025-12-11T21:14:14.146080", "MEAN_MOTION": 14.12252116, "ECCENTRICITY": 0.00395483, "INCLINATION": 98.5728, "RA_OF_ASC_NODE": 20.6725, "ARG_OF_PERICENTER": 247.8897, "MEAN_ANOMALY": 111.8074, "EPHEMERIS_TYPE": 0, "CLASSIFICATION_TYPE": "U", "NORAD_CAT_ID": 31732, "ELEMENT_SET_NO": 999, "REV_AT_EPOCH": 64318, "BSTAR": 0.00049938174, "MEAN_MOTION_DOT": 8.83e-06, "MEAN_MOTION_DDOT": 0}, "tle": {"line1": "1 31732U 99025CEF 25345.88488595  .00000883  00000+0  49938-3 0  9999", "line2": "2 31732  98.5728  20.6725 0039548 247.8897 111.8074 14.12252116643182"}}, "geometry": {"type": "Point", "coordinates": [19.34757888450466, 10.907907590026545]}}, {"type": "Feature", "properties": {"norad_id": 31734, "name": "FENGYUN 1C DEB", "group": "fengyun-1c-debris", "lat": -62.17803457241599, "lon": 141.93368764187363, "alt_km": 845.2440816859289, "timestamp": "2025-12-12T05:47:29.055007+00:00", "meta": {"OBJECT_NAME": "FENGYUN 1C DEB", "OBJECT_ID": "1999-025CEH", "EPOCH": "2025-12-10T17:21:48.423168", "MEAN_MOTION": 14.29008825, "ECCENTRICITY": 0.01040397, "INCLINATION": 98.4988, "RA_OF_ASC_NODE": 336.9135, "ARG_OF_PERICENTER": 13.5368, "MEAN_ANOMALY": 346.8567, "EPHEMERIS_TYPE": 0, "CLASSIFICATION_TYPE": "U", "NORAD_CAT_ID": 31734, "ELEMENT_SET_NO": 999, "REV_AT_EPOCH": 96422, "BSTAR": 0.0007502923, "MEAN_MOTION_DOT": 1.97e-05, "MEAN_MOTION_DDOT": 0}, "tle": {"line1": "1 31734U 99025CEH 25344.72347712  .00001970  00000+0  75029-3 0  9996", "line2": "2 31734  98.4988 336.9135 0104039  13.5368 346.8567 14.29008825964220"}}, "geometry": {"type": "Point", "coordinates": [141.93368764187363, -62.17803457241599]}}]}